{"type": "FeatureCollection", "features": [ {"type": "Feature", "properties": {"norad_id": 38494, "name": "FENGYUN 1C DEB", "group": "fengyun-1c-debris", "lat": -73.68182615300209, "lon": 99.15918421954746, "alt_km": 816.0759810479913, "timestamp": "2025-12-26T10:30:50.557674+00:00", "meta": {"OBJECT_NAME": "FENGYUN 1C DEB", "OBJECT_ID": "1999-025ESD", "EPOCH": "2025-12-24T02:24:03.074112", "MEAN_MOTION": 14.00504572, "ECCENTRICITY": 0.03833507, "INCLINATION": 98.4389, "RA_OF_ASC_NODE": 307.463, "ARG_OF_PERICENTER": 337.3093, "MEAN_ANOMALY": 21.1511, "EPHEMERIS_TYPE": 0, "CLASSIFICATION_TYPE": "U", "NORAD_CAT_ID": 38494, "ELEMENT_SET_NO": 999, "REV_AT_EPOCH": 7313, "BSTAR": 0.0049089492, "MEAN_MOTION_DOT": 0.00013814, "MEAN_MOTION_DDOT": 0}, "tle": {"line1": "1 38494U 99025ESD 25358.10003558  .00013814  00000+0  49089-2 0  9996", "line2": "2 38494  98.4389 307.4630 0383350 337.3093  21.1511 14.00504572 73137"}}, "geometry": {"type": "Point", "coordinates": [99.15918421954746, -73.68182615300209]}}, {"type": "Feature", "properties": {"norad_id": 38495, "name": "FENGYUN 1C DEB", "group": "fengyun-1c-debris", "lat": -67.92364865187399, "lon": 39.60236708162485, "alt_km": 1194.1423878040987, "timestamp": "2025-12-26T10:30:50.557685+00:00", "meta": {"OBJECT_NAME": "FENGYUN 1C DEB", "OBJECT_ID": "1999-025ESE", "EPOCH": "2025-12-02T06:20:41.771904", "MEAN_MOTION": 13.69106573, "ECCENTRICITY": 0.0252581, "INCLINATION": 99.1709, "RA_OF_ASC_NODE": 353.1036, "ARG_OF_PERICENTER": 165.9119, "MEAN_ANOMALY": 194.9245, "EPHEMERIS_TYPE": 0, "CLASSIFICATION_TYPE": "U", "NORAD_CAT_ID": 38495, "ELEMENT_SET_NO": 999, "REV_AT_EPOCH": 60969, "BSTAR": 0.0025866, "MEAN_MOTION_DOT": 2.759e-05, "MEAN_MOTION_DDOT": 0}, "tle": {"line1": "1 38495U 99025ESE 25336.26437236  .00002759  00000+0  25866-2 0  9997", "line2": "2 38495  99.1709 353.1036 0252581 165.9119 194.9245 13.69106573609697"}}, "geometry": {"type": "Point", "coordinates": [39.60236708162485, -67.92364865187399]}}, {"type": "Feature", "properties": {"norad_id": 38496, "name": "FENGYUN 1C DEB", "group": "fengyun-1c-debris", "lat": -78.79423169005412, "lon": 138.68800465045518, "alt_km": 842.246914753232, "timestamp": "2025-12-26T10:30:50.557695+00:00", "meta": {"OBJECT_NAME": "FENGYUN 1C DEB", "OBJECT_ID": "1999-025ESF", "EPOCH": "2025-12-19T06:57:41.678208", "MEAN_MOTION": 14.10020272, "ECCENTRICITY": 0.0077623, "INCLINATION": 98.7629, "RA_OF_ASC_NODE": 2.8558, "ARG_OF_PERICENTER": 347.946, "MEAN_ANOMALY": 11.9851, "EPHEMERIS_TYPE": 0, "CLASSIFICATION_TYPE": "U", "NORAD_CAT_ID": 38496, "ELEMENT_SET_NO": 999, "REV_AT_EPOCH": 81113, "BSTAR": 0.00061884, "MEAN_MOTION_DOT": 1.08e-05, "MEAN_MOTION_DDOT": 0}, "tle": {"line1": "1 38496U 99025ESF 25353.29006572  .00001080  00000+0  61884-3 0  9992", "line2": "2 38496  98.7629   2.8558 0077623 347.9460  11.9851 14.10020272811137"}}, "geometry": {"type": "Point", "coordinates": [138.68800465045518, -78.79423169005412]}}, {"type": "Feature", "properties": {"norad_id": 38498, "name": "FENGYUN 1C DEB", "group": "fengyun-1c-debris", "lat": -71.83742645600405, "lon": 167.79438935162108, "alt_km": 1629.5461660980936, "timestamp": "2025-12-26T10:30:50.557704+00:00", "meta": {"OBJECT_NAME": "FENGYUN 1C DEB", "OBJECT_ID": "1999-025ESH", "EPOCH": "2025-12-22T07:03:50.461056", "MEAN_MOTION": 12.96639906, "ECCENTRICITY": 0.05557542, "INCLINATION": 99.6983, "RA_OF_ASC_NODE": 15.5173, "ARG_OF_PERICENTER": 50.4291, "MEAN_ANOMALY": 314.4564, "EPHEMERIS_TYPE": 0, "CLASSIFICATION_TYPE": "U", "NORAD_CAT_ID": 38498, "ELEMENT_SET_NO": 999, "REV_AT_EPOCH": 53867, "BSTAR": 0.0023471265, "MEAN_MOTION_DOT": 1.336e-05, "MEAN_MOTION_DDOT": 0}, "tle": {"line1": "1 38498U 99025ESH 25356.29433404  .00001336  00000+0  23471-2 0  9998", "line2": "2 38498  99.6983  15.5173 0555754  50.4291 314.4564 12.96639906538679"}}, "geometry": {"type": "Point", "coordinates": [167.79438935162108, -71.83742645600405]}}, {"type": "Feature", "properties": {"norad_id": 38510, "name": "FENGYUN 1C DEB", "group": "fengyun-1c-debris", "lat": 31.28735012307894, "lon": 3.713788009378647, "alt_km": 833.3168876075351, "timestamp": "2025-12-26T10:30:50.557715+00:00", "meta": {"OBJECT_NAME": "FENGYUN 1C DEB", "OBJECT_ID": "1999-025ESV", "EPOCH": "2025-12-23T07:36:20.803680", "MEAN_MOTION": 14.13344604, "ECCENTRICITY": 0.00959048, "INCLINATION": 98.6029, "RA_OF_ASC_NODE": 5.9908, "ARG_OF_PERICENTER": 120.5823, "MEAN_ANOMALY": 240.4854, "EPHEMERIS_TYPE": 0, "CLASSIFICATION_TYPE": "U", "NORAD_CAT_ID": 38510, "ELEMENT_SET_NO": 999, "REV_AT_EPOCH": 88819, "BSTAR": 0.00051230803, "MEAN_MOTION_DOT": 9.63e-06, "MEAN_MOTION_DDOT": 0}, "tle": {"line1": "1 38510U 99025ESV 25357.31690745  .00000963  00000+0  51231-3 0  9991", "line2": "2 38510  98.6029   5.9908 0095904 120.5823 240.4854 14.13344604888193"}}, "geometry": {"type": "Point", "coordinates": [3.713788009378647, 31.28735012307894]}}, {"type": "Feature", "properties": {"norad_id": 38512, "name": "FENGYUN 1C DEB", "group": "fengyun-1c-debris", "lat": -63.87954312722858, "lon": -101.9155757441442, "alt_km": 1104.8805408237886, "timestamp": "2025-12-26T10:30:50.557725+00:00", "meta": {"OBJECT_NAME": "FENGYUN 1C DEB", "OBJECT_ID": "1999-025ESX", "EPOCH": "2025-12-10T03:21:08.986176", "MEAN_MOTION": 13.7397021, "ECCENTRICITY": 0.02264501, "INCLINATION": 98.3804, "RA_OF_ASC_NODE": 226.2794, "ARG_OF_PERICENTER": 112.1956, "MEAN_ANOMALY": 250.339, "EPHEMERIS_TYPE": 0, "CLASSIFICATION_TYPE": "U", "NORAD_CAT_ID": 38512, "ELEMENT_SET_NO": 999, "REV_AT_EPOCH": 59534, "BSTAR": 0.0014232555, "MEAN_MOTION_DOT": 1.573e-05, "MEAN_MOTION_DDOT": 0}, "tle": {"line1": "1 38512U 99025ESX 25344.13968734  .00001573  00000+0  14233-2 0  9993", "line2": "2 38512  98.3804 226.2794 0226450 112.1956 250.3390 13.73970210595340"}}, "geometry": {"type": "Point", "coordinates": [-101.9155757441442, -63.87954312722858]}}, {"type": "Feature", "properties": {"norad_id": 38514, "name": "FENGYUN 1C DEB", "group": "fengyun-1c-debris", "lat": -72.247955143777, "lon": 54.98004362947044, "alt_km": 712.0512555507121, "timestamp": "2025-12-26T10:30:50.557735+00:00", "meta": {"OBJECT_NAME": "FENGYUN 1C DEB", "OBJECT_ID": "1999-025ESZ", "EPOCH": "2025-12-25T00:56:07.133280", "MEAN_MOTION": 14.16200659, "ECCENTRICITY": 0.02694365, "INCLINATION": 98.0544, "RA_OF_ASC_NODE": 27.4614, "ARG_OF_PERICENTER": 337.8346, "MEAN_ANOMALY": 21.1356, "EPHEMERIS_TYPE": 0, "CLASSIFICATION_TYPE": "U", "NORAD_CAT_ID": 38514, "ELEMENT_SET_NO": 999, "REV_AT_EPOCH": 88170, "BSTAR": 0.0072966296, "MEAN_MOTION_DOT": 0.00020596, "MEAN_MOTION_DDOT": 0}, "tle": {"line1": "1 38514U 99025ESZ 25359.03897145  .00020596  00000+0  72966-2 0  9990", "line2": "2 38514  98.0544  27.4614 0269436 337.8346  21.1356 14.16200659881707"}}, "geometry": {"type": "Point", "coordinates": [54.98004362947044, -72.247955143777]}}, {"type": "Feature", "properties": {"norad_id": 38516, "name": "FENGYUN 1C DEB", "group": "fengyun-1c-debris", "lat": 68.43290874884596, "lon": -38.044216465775406, "alt_km": 694.1431940161638, "timestamp": "2025-12-26T10:30:50.557744+00:00", "meta": {"OBJECT_NAME": "FENGYUN 1C DEB", "OBJECT_ID": "1999-025ETB", "EPOCH": "2025-12-24T16:19:45.991488", "MEAN_MOTION": 14.34056403, "ECCENTRICITY": 0.0111753, "INCLINATION": 98.4438, "RA_OF_ASC_NODE": 342.3136, "ARG_OF_PERICENTER": 90.1675, "MEAN_ANOMALY": 271.2316, "EPHEMERIS_TYPE": 0, "CLASSIFICATION_TYPE": "U", "NORAD_CAT_ID": 38516, "ELEMENT_SET_NO": 999, "REV_AT_EPOCH": 85044, "BSTAR": 0.00010995262, "MEAN_MOTION_DOT": 2.86e-06, "MEAN_MOTION_DDOT": 0}, "tle": {"line1": "1 38516U 99025ETB 25358.68039342  .00000286  00000+0  10995-3 0  9998", "line2": "2 38516  98.4438 342.3136 0111753  90.1675 271.2316 14.34056403850442"}}, "geometry": {"type": "Point", "coordinates": [-38.044216465775406, 68.43290874884596]}}, {"type": "Feature", "properties": {"norad_id": 38717, "name": "FENGYUN 1C DEB", "group": "fengyun-1c-debris", "lat": -42.79320898926582, "lon": 24.714667280734655, "alt_km": 791.0254008600023, "timestamp": "2025-12-26T10:30:50.557755+00:00", "meta": {"OBJECT_NAME": "FENGYUN 1C DEB", "OBJECT_ID": "1999-025ETJ", "EPOCH": "2025-12-24T22:03:53.256096", "MEAN_MOTION": 14.20015413, "ECCENTRICITY": 0.0056679, "INCLINATION": 99.159, "RA_OF_ASC_NODE": 14.5537, "ARG_OF_PERICENTER": 319.0922, "MEAN_ANOMALY": 158.0056, "EPHEMERIS_TYPE": 0, "CLASSIFICATION_TYPE": "U", "NORAD_CAT_ID": 38717, "ELEMENT_SET_NO": 999, "REV_AT_EPOCH": 58599, "BSTAR": 0.0017391, "MEAN_MOTION_DOT": 3.714e-05, "MEAN_MOTION_DDOT": 0}, "tle": {"line1": "1 38717U 99025ETJ 25358.91936639  .00003714  00000+0  17391-2 0  9997", "line2": "2 38717  99.1590  14.5537 0056679 319.0922 158.0056 14.20015413585997"}}, "geometry": {"type": "Point", "coordinates": [24.714667280734655, -42.79320898926582]}}, {"type": "Feature", "properties": {"norad_id": 38722, "name": "FENGYUN 1C DEB", "group": "fengyun-1c-debris", "lat": 80.63999676460982, "lon": 9.650647868204961, "alt_km": 606.4087529347544, "timestamp": "2025-12-26T10:30:50.557765+00:00", "meta": {"OBJECT_NAME": "FENGYUN 1C DEB", "OBJECT_ID": "1999-025ETP", "EPOCH": "2025-12-23T03:05:34.681632", "MEAN_MOTION": 14.58641148, "ECCENTRICITY": 0.0145982, "INCLINATION": 99.353, "RA_OF_ASC_NODE": 96.7446, "ARG_OF_PERICENTER": 63.5175, "MEAN_ANOMALY": 298.091, "EPHEMERIS_TYPE": 0, "CLASSIFICATION_TYPE": "U", "NORAD_CAT_ID": 38722, "ELEMENT_SET_NO": 999, "REV_AT_EPOCH": 70615, "BSTAR": 0.0021733607, "MEAN_MOTION_DOT": 0.00011693, "MEAN_MOTION_DDOT": 0}, "tle": {"line1": "1 38722U 99025ETP 25357.12887363  .00011693  00000+0  21734-2 0  9995", "line2": "2 38722  99.3530  96.7446 0145982  63.5175 298.0910 14.58641148706155"}}, "geometry": {"type": "Point", "coordinates": [9.650647868204961, 80.63999676460982]}}]}